[{"OBJECT_NAME":"YUNHAI-2 02E","OBJECT_ID":"2024-052E","EPOCH":"2026-03-09T23:04:08.218272","MEAN_MOTION":14.27923834,"ECCENTRICITY":0.00117453,"INCLINATION":50.0117,"RA_OF_ASC_NODE":23.2487,"ARG_OF_PERICENTER":69.3739,"MEAN_ANOMALY":290.8434,"EPHEMERIS_TYPE":0,"CLASSIFICATION_TYPE":"U","NORAD_CAT_ID":59284,"ELEMENT_SET_NO":999,"REV_AT_EPOCH":9275,"BSTAR":0.0001398659,"MEAN_MOTION_DOT":1.88e-6,"MEAN_MOTION_DDOT":0},{"OBJECT_NAME":"FENGYUN 1C DEB","OBJECT_ID":"1999-025VX","EPOCH":"2026-03-09T11:04:11.199072","MEAN_MOTION":14.3172338,"ECCENTRICITY":0.00232891,"INCLINATION":98.713,"RA_OF_ASC_NODE":146.947,"ARG_OF_PERICENTER":147.5766,"MEAN_ANOMALY":344.8933,"EPHEMERIS_TYPE":0,"CLASSIFICATION_TYPE":"U","NORAD_CAT_ID":30214,"ELEMENT_SET_NO":999,"REV_AT_EPOCH":98807,"BSTAR":0.0016656363,"MEAN_MOTION_DOT":4.416e-5,"MEAN_MOTION_DDOT":0}]
